{
  "norad_id": 58871,
  "name": "STARLINK-31214",
  "history": [
    {
      "epoch": "2026-03-28T20:06:46.088352",
      "apogee_km": 483.79828080007155,
      "perigee_km": 482.26741658343235,
      "latitude_deg": -27.217118390725638,
      "longitude_deg": 147.55120928003453,
      "semi_major_axis_km": 6861.169848691752,
      "eccentricity": 0.00011156,
      "inclination_deg": 43.002,
      "raan_deg": 140.531,
      "arg_perigee_deg": 277.423,
      "mean_anomaly_deg": 82.6495,
      "mean_motion_rev_day": 15.27585426
    }
  ]
}