{"fetched_at":"2026-03-29T16:36:15Z","count":15609,"tles":[{"name":"STARLINK-31214","line1":"1 58871U 24019U   26087.83803343 -.00000430  00000+0 -61040-5 0  9994","line2":"2 58871  43.0020 140.5310 0001115 277.4230  82.6495 15.27585426121998","category":"Starlink"}]}